HST                     
1 20580U 90037B   24286.41580231  .00015802  00000+0  69967-3 0  9995
2 20580  28.4686 278.4778 0002705 232.5866 127.4481 15.20189843694872
